start=new Date('2023-02-26T00:00:00.000Z').valueOf();
sats=[{"ECCENTRICITY":"0.00012720","EPHEMERIS_TYPE":"0","RA_OF_ASC_NODE":"342.8183","OBJECT_TYPE":"PAYLOAD","BSTAR":"0.00002336600000","OBJECT_NAME":"STARLINK-1243","ARG_OF_PERICENTER":"79.9822","SITE":"AFETR","MEAN_MOTION_DDOT":"0.0000000000000","APOAPSIS":"548.116","TIME_SYSTEM":"UTC","DECAY_DATE":null,"MEAN_ELEMENT_THEORY":"SGP4","MEAN_MOTION_DOT":"0.00000067","MEAN_MOTION":"15.06392843","NORAD_CAT_ID":"45234","SEMIMAJOR_AXIS":"6925.370","ELEMENT_SET_NO":"999","PERIOD":"95.593","MEAN_ANOMALY":"280.1310","REV_AT_EPOCH":"16773","INCLINATION":"53.0550","RCS_SIZE":"LARGE","GP_ID":"226854163","LAUNCH_DATE":"2020-02-17","CENTER_NAME":"EARTH","OBJECT_ID":"2020-012BJ","PERIAPSIS":"546.355","REF_FRAME":"TEME","TLE_LINE2":"2 45234  53.0550 342.8183 0001272  79.9822 280.1310 15.06392843167736","EPOCH":"2023-02-25T04:49:34.145760","COUNTRY_CODE":"US","TLE_LINE1":"1 45234U 20012BJ  23056.20108965  .00000067  00000-0  23366-4 0  9997","CLASSIFICATION_TYPE":"U","FILE":"3837605"},{"CENTER_NAME":"EARTH","OBJECT_ID":"2020-012BK","RCS_SIZE":"LARGE","LAUNCH_DATE":"2020-02-17","GP_ID":"226853425","TLE_LINE2":"2 45235  53.0535 342.8864 0000961 112.3437 247.7654 15.06411119167787","REF_FRAME":"TEME","PERIAPSIS":"546.514","TLE_LINE1":"1 45235U 20012BK  23056.18635726  .00015258  00000-0  10407-2 0  9993","COUNTRY_CODE":"US","EPOCH":"2023-02-25T04:28:21.267264","FILE":"3837605","CLASSIFICATION_TYPE":"U","OBJECT_NAME":"STARLINK-1246","SITE":"AFETR","MEAN_MOTION_DDOT":"0.0000000000000","ARG_OF_PERICENTER":"112.3437","ECCENTRICITY":"0.00009610","EPHEMERIS_TYPE":"0","BSTAR":"0.00104070000000","RA_OF_ASC_NODE":"342.8864","OBJECT_TYPE":"PAYLOAD","APOAPSIS":"547.845","MEAN_MOTION":"15.06411119","MEAN_MOTION_DOT":"0.00015258","ELEMENT_SET_NO":"999","NORAD_CAT_ID":"45235","SEMIMAJOR_AXIS":"6925.314","DECAY_DATE":null,"TIME_SYSTEM":"UTC","MEAN_ELEMENT_THEORY":"SGP4","REV_AT_EPOCH":"16778","INCLINATION":"53.0535","PERIOD":"95.591","MEAN_ANOMALY":"247.7654"},{"CENTER_NAME":"EARTH","OBJECT_ID":"2020-012BL","RCS_SIZE":"LARGE","LAUNCH_DATE":"2020-02-17","GP_ID":"226909758","TLE_LINE2":"2 45236  53.0524 299.3967 0001006  83.9052 276.2051 15.06384645168437","REF_FRAME":"TEME","PERIAPSIS":"546.564","TLE_LINE1":"1 45236U 20012BL  23056.96409286  .00001273  00000-0  10434-3 0  9993","COUNTRY_CODE":"US","EPOCH":"2023-02-25T23:08:17.623104","FILE":"3839003","CLASSIFICATION_TYPE":"U","OBJECT_NAME":"STARLINK-1247","MEAN_MOTION_DDOT":"0.0000000000000","SITE":"AFETR","ARG_OF_PERICENTER":"83.9052","EPHEMERIS_TYPE":"0","ECCENTRICITY":"0.00010060","BSTAR":"0.00010434000000","RA_OF_ASC_NODE":"299.3967","OBJECT_TYPE":"PAYLOAD","APOAPSIS":"547.957","MEAN_MOTION":"15.06384645","MEAN_MOTION_DOT":"0.00001273","ELEMENT_SET_NO":"999","SEMIMAJOR_AXIS":"6925.396","NORAD_CAT_ID":"45236","TIME_SYSTEM":"UTC","DECAY_DATE":null,"MEAN_ELEMENT_THEORY":"SGP4","REV_AT_EPOCH":"16843","INCLINATION":"53.0524","PERIOD":"95.593","MEAN_ANOMALY":"276.2051"},{"OBJECT_NAME":"STARLINK-1270","SITE":"AFETR","MEAN_MOTION_DDOT":"0.0000000000000","ARG_OF_PERICENTER":"77.1164","EPHEMERIS_TYPE":"0","ECCENTRICITY":"0.00010170","BSTAR":"0.00129370000000","OBJECT_TYPE":"PAYLOAD","RA_OF_ASC_NODE":"299.8869","APOAPSIS":"547.969","MEAN_MOTION":"15.06383156","MEAN_MOTION_DOT":"0.00019032","ELEMENT_SET_NO":"999","NORAD_CAT_ID":"45237","SEMIMAJOR_AXIS":"6925.400","TIME_SYSTEM":"UTC","DECAY_DATE":null,"MEAN_ELEMENT_THEORY":"SGP4","REV_AT_EPOCH":"16842","INCLINATION":"53.0539","PERIOD":"95.593","MEAN_ANOMALY":"282.9938","CENTER_NAME":"EARTH","OBJECT_ID":"2020-012BM","RCS_SIZE":"LARGE","LAUNCH_DATE":"2020-02-17","GP_ID":"226910006","TLE_LINE2":"2 45237  53.0539 299.8869 0001017  77.1164 282.9938 15.06383156168424","REF_FRAME":"TEME","PERIAPSIS":"546.561","TLE_LINE1":"1 45237U 20012BM  23056.85351742  .00019032  00000-0  12937-2 0  9996","COUNTRY_CODE":"US","EPOCH":"2023-02-25T20:29:03.905088","CLASSIFICATION_TYPE":"U","FILE":"3839003"},{"EPOCH":"2023-02-25T17:53:48.377184","COUNTRY_CODE":"US","TLE_LINE1":"1 45360U 20019A   23056.74569881 -.00002850  00000-0 -17249-3 0  9997","CLASSIFICATION_TYPE":"U","FILE":"3839003","GP_ID":"226909270","LAUNCH_DATE":"2020-03-18","RCS_SIZE":"LARGE","OBJECT_ID":"2020-019A","CENTER_NAME":"EARTH","PERIAPSIS":"546.044","REF_FRAME":"TEME","TLE_LINE2":"2 45360  53.0534  70.3690 0001678  95.8315 264.2865 15.06402320163149","MEAN_ELEMENT_THEORY":"SGP4","TIME_SYSTEM":"UTC","DECAY_DATE":null,"SEMIMAJOR_AXIS":"6925.341","NORAD_CAT_ID":"45360","ELEMENT_SET_NO":"999","MEAN_MOTION_DOT":"-0.00002850","MEAN_MOTION":"15.06402320","MEAN_ANOMALY":"264.2865","PERIOD":"95.592","INCLINATION":"53.0534","REV_AT_EPOCH":"16314","RA_OF_ASC_NODE":"70.3690","OBJECT_TYPE":"PAYLOAD","BSTAR":"-0.00017249000000","ECCENTRICITY":"0.00016780","EPHEMERIS_TYPE":"0","ARG_OF_PERICENTER":"95.8315","MEAN_MOTION_DDOT":"0.0000000000000","SITE":"AFETR","OBJECT_NAME":"STARLINK-1279","APOAPSIS":"548.369"},{"CENTER_NAME":"EARTH","OBJECT_ID":"2020-019B","RCS_SIZE":"LARGE","GP_ID":"226909520","LAUNCH_DATE":"2020-03-18","TLE_LINE2":"2 45361  53.0551  80.1240 0001055 122.1877 237.9215 15.06420780163028","PERIAPSIS":"546.419","REF_FRAME":"TEME","TLE_LINE1":"1 45361U 20019B   23056.80006162  .00015003  00000-0  10234-2 0  9991","EPOCH":"2023-02-25T19:12:05.323968","COUNTRY_CODE":"US","FILE":"3839003","CLASSIFICATION_TYPE":"U","OBJECT_NAME":"STARLINK-1301","ARG_OF_PERICENTER":"122.1877","SITE":"AFETR","MEAN_MOTION_DDOT":"0.0000000000000","ECCENTRICITY":"0.00010550","EPHEMERIS_TYPE":"0","RA_OF_ASC_NODE":"80.1240","OBJECT_TYPE":"PAYLOAD","BSTAR":"0.00102340000000","APOAPSIS":"547.880","MEAN_MOTION_DOT":"0.00015003","MEAN_MOTION":"15.06420780","SEMIMAJOR_AXIS":"6925.285","NORAD_CAT_ID":"45361","ELEMENT_SET_NO":"999","TIME_SYSTEM":"UTC","DECAY_DATE":null,"MEAN_ELEMENT_THEORY":"SGP4","REV_AT_EPOCH":"16302","INCLINATION":"53.0551","PERIOD":"95.591","MEAN_ANOMALY":"237.9215"},{"MEAN_MOTION_DDOT":"0.0000000000000","SITE":"AFETR","ARG_OF_PERICENTER":"89.1830","OBJECT_NAME":"STARLINK-1306","BSTAR":"-0.00081287000000","RA_OF_ASC_NODE":"99.9185","OBJECT_TYPE":"PAYLOAD","EPHEMERIS_TYPE":"0","ECCENTRICITY":"0.00017390","APOAPSIS":"548.416","ELEMENT_SET_NO":"999","NORAD_CAT_ID":"45362","SEMIMAJOR_AXIS":"6925.347","MEAN_MOTION":"15.06400543","MEAN_MOTION_DOT":"-0.00012369","MEAN_ELEMENT_THEORY":"SGP4","DECAY_DATE":null,"TIME_SYSTEM":"UTC","INCLINATION":"53.0515","REV_AT_EPOCH":"16274","MEAN_ANOMALY":"270.9358","PERIOD":"95.592","OBJECT_ID":"2020-019C","CENTER_NAME":"EARTH","LAUNCH_DATE":"2020-03-18","GP_ID":"226910267","RCS_SIZE":"LARGE","TLE_LINE2":"2 45362  53.0515  99.9185 0001739  89.1830 270.9358 15.06400543162743","REF_FRAME":"TEME","PERIAPSIS":"546.008","TLE_LINE1":"1 45362U 20019C   23056.84614584 -.00012369  00000-0 -81287-3 0  9990","COUNTRY_CODE":"US","EPOCH":"2023-02-25T20:18:27.000576","FILE":"3839003","CLASSIFICATION_TYPE":"U"},{"APOAPSIS":"535.208","RA_OF_ASC_NODE":"69.1390","OBJECT_TYPE":"PAYLOAD","BSTAR":"0.00138680000000","ECCENTRICITY":"0.00013020","EPHEMERIS_TYPE":"0","ARG_OF_PERICENTER":"33.3252","SITE":"AFETR","MEAN_MOTION_DDOT":"0.0000000000000","OBJECT_NAME":"STARLINK-1313","MEAN_ANOMALY":"326.7821","PERIOD":"95.325","INCLINATION":"53.0536","REV_AT_EPOCH":"16316","MEAN_ELEMENT_THEORY":"SGP4","DECAY_DATE":null,"TIME_SYSTEM":"UTC","NORAD_CAT_ID":"45364","SEMIMAJOR_AXIS":"6912.443","ELEMENT_SET_NO":"999","MEAN_MOTION_DOT":"0.00022963","MEAN_MOTION":"15.10620597","PERIAPSIS":"533.408","REF_FRAME":"TEME","TLE_LINE2":"2 45364  53.0536  69.1390 0001302  33.3252 326.7821 15.10620597163160","GP_ID":"226911015","LAUNCH_DATE":"2020-03-18","RCS_SIZE":"LARGE","OBJECT_ID":"2020-019E","CENTER_NAME":"EARTH","CLASSIFICATION_TYPE":"U","FILE":"3839003","EPOCH":"2023-02-25T18:23:35.327904","COUNTRY_CODE":"US","TLE_LINE1":"1 45364U 20019E   23056.76638111  .00022963  00000-0  13868-2 0  9993"},{"CLASSIFICATION_TYPE":"U","FILE":"3837605","TLE_LINE1":"1 45365U 20019F   23056.46579083  .00036320  00000-0  19663-2 0  9994","COUNTRY_CODE":"US","EPOCH":"2023-02-25T11:10:44.327712","TLE_LINE2":"2 45365  52.9965  77.9177 0004042  56.2500 303.8876 15.14310797162953","REF_FRAME":"TEME","PERIAPSIS":"520.284","CENTER_NAME":"EARTH","OBJECT_ID":"2020-019F","RCS_SIZE":"LARGE","LAUNCH_DATE":"2020-03-18","GP_ID":"226853190","REV_AT_EPOCH":"16295","INCLINATION":"52.9965","PERIOD":"95.093","MEAN_ANOMALY":"303.8876","MEAN_MOTION":"15.14310797","MEAN_MOTION_DOT":"0.00036320","ELEMENT_SET_NO":"999","SEMIMAJOR_AXIS":"6901.209","NORAD_CAT_ID":"45365","TIME_SYSTEM":"UTC","DECAY_DATE":null,"MEAN_ELEMENT_THEORY":"SGP4","APOAPSIS":"525.863","OBJECT_NAME":"STARLINK-1317","SITE":"AFETR","MEAN_MOTION_DDOT":"0.0000000000000","ARG_OF_PERICENTER":"56.2500","EPHEMERIS_TYPE":"0","ECCENTRICITY":"0.00040420","BSTAR":"0.00196630000000","OBJECT_TYPE":"PAYLOAD","RA_OF_ASC_NODE":"77.9177"},{"MEAN_ANOMALY":"267.8791","PERIOD":"95.591","INCLINATION":"53.0516","REV_AT_EPOCH":"16275","MEAN_ELEMENT_THEORY":"SGP4","TIME_SYSTEM":"UTC","DECAY_DATE":null,"SEMIMAJOR_AXIS":"6925.309","NORAD_CAT_ID":"45366","ELEMENT_SET_NO":"999","MEAN_MOTION_DOT":"0.00012718","MEAN_MOTION":"15.06412972","APOAPSIS":"548.125","OBJECT_TYPE":"PAYLOAD","RA_OF_ASC_NODE":"99.9895","BSTAR":"0.00087082000000","ECCENTRICITY":"0.00013730","EPHEMERIS_TYPE":"0","ARG_OF_PERICENTER":"92.2355","MEAN_MOTION_DDOT":"0.0000000000000","SITE":"AFETR","OBJECT_NAME":"STARLINK-1262","CLASSIFICATION_TYPE":"U","FILE":"3839003","EPOCH":"2023-02-25T19:57:13.515552","COUNTRY_CODE":"US","TLE_LINE1":"1 45366U 20019G   23056.83140643  .00012718  00000-0  87082-3 0  9998","PERIAPSIS":"546.223","REF_FRAME":"TEME","TLE_LINE2":"2 45366  53.0516  99.9895 0001373  92.2355 267.8791 15.06412972162753","GP_ID":"226910019","LAUNCH_DATE":"2020-03-18","RCS_SIZE":"LARGE","OBJECT_ID":"2020-019G","CENTER_NAME":"EARTH"}];
